SENTINEL-2B             
1 42063U 17013A   20349.15851949  .00000012  00000-0  21389-4 0  9997
2 42063  98.5628  60.7940 0001357  82.2849 277.8494 14.30822256197078
